start=new Date('2023-04-13T00:00:00.000Z').valueOf();
sats=[{"ARG_OF_PERICENTER":"90.2098","LAUNCH_DATE":"2022-03-09","TLE_LINE1":"1 52000U 22025AW  23102.39136924  .00001064  00000-0  84942-4 0  9995","APOAPSIS":"540.665","MEAN_MOTION_DOT":"0.00001064","TIME_SYSTEM":"UTC","REV_AT_EPOCH":"6055","EPOCH":"2023-04-12T09:23:34.302336","DECAY_DATE":null,"MEAN_MOTION_DDOT":"0.0000000000000","ECCENTRICITY":"0.00013160","BSTAR":"0.00008494200000","TLE_LINE2":"2 52000  53.2164 107.8716 0001316  90.2098 269.9045 15.08837132 60558","ELEMENT_SET_NO":"999","MEAN_ELEMENT_THEORY":"SGP4","OBJECT_TYPE":"PAYLOAD","INCLINATION":"53.2164","MEAN_ANOMALY":"269.9045","EPHEMERIS_TYPE":"0","COUNTRY_CODE":"US","PERIAPSIS":"538.844","FILE":"3886349","PERIOD":"95.438","REF_FRAME":"TEME","RA_OF_ASC_NODE":"107.8716","CENTER_NAME":"EARTH","SEMIMAJOR_AXIS":"6917.889","SITE":"AFETR","GP_ID":"229983131","OBJECT_NAME":"STARLINK-3653","OBJECT_ID":"2022-025AW","NORAD_CAT_ID":"52000","MEAN_MOTION":"15.08837132","CLASSIFICATION_TYPE":"U","RCS_SIZE":"LARGE"},{"NORAD_CAT_ID":"52001","OBJECT_NAME":"STARLINK-3659","OBJECT_ID":"2022-025AX","RCS_SIZE":"LARGE","CLASSIFICATION_TYPE":"U","MEAN_MOTION":"15.08821874","FILE":"3886349","PERIAPSIS":"538.668","EPHEMERIS_TYPE":"0","COUNTRY_CODE":"US","GP_ID":"229981896","RA_OF_ASC_NODE":"107.3143","PERIOD":"95.439","REF_FRAME":"TEME","CENTER_NAME":"EARTH","SEMIMAJOR_AXIS":"6917.936","SITE":"AFETR","ELEMENT_SET_NO":"999","MEAN_ELEMENT_THEORY":"SGP4","OBJECT_TYPE":"PAYLOAD","BSTAR":"-0.00009342700000","TLE_LINE2":"2 52001  53.2166 107.3143 0001638  80.5602 279.5575 15.08821874 60573","MEAN_ANOMALY":"279.5575","INCLINATION":"53.2166","MEAN_MOTION_DOT":"-0.00001774","APOAPSIS":"540.934","TIME_SYSTEM":"UTC","ARG_OF_PERICENTER":"80.5602","LAUNCH_DATE":"2022-03-09","TLE_LINE1":"1 52001U 22025AX  23102.53491945 -.00001774  00000-0 -93427-4 0  9997","MEAN_MOTION_DDOT":"0.0000000000000","ECCENTRICITY":"0.00016380","REV_AT_EPOCH":"6057","EPOCH":"2023-04-12T12:50:17.040480","DECAY_DATE":null},{"MEAN_ANOMALY":"275.5106","INCLINATION":"53.2172","ELEMENT_SET_NO":"999","MEAN_ELEMENT_THEORY":"SGP4","OBJECT_TYPE":"PAYLOAD","BSTAR":"0.00000667450000","TLE_LINE2":"2 52002  53.2172 108.2263 0001521  84.6059 275.5106 15.08839100 60540","MEAN_MOTION_DDOT":"0.0000000000000","ECCENTRICITY":"0.00015210","REV_AT_EPOCH":"6054","EPOCH":"2023-04-12T07:58:48.024192","DECAY_DATE":null,"MEAN_MOTION_DOT":"-0.00000182","APOAPSIS":"540.800","TIME_SYSTEM":"UTC","ARG_OF_PERICENTER":"84.6059","LAUNCH_DATE":"2022-03-09","TLE_LINE1":"1 52002U 22025AY  23102.33250028 -.00000182  00000-0  66745-5 0  9996","RCS_SIZE":"LARGE","CLASSIFICATION_TYPE":"U","MEAN_MOTION":"15.08839100","NORAD_CAT_ID":"52002","OBJECT_NAME":"STARLINK-3668","OBJECT_ID":"2022-025AY","GP_ID":"229982146","RA_OF_ASC_NODE":"108.2263","PERIOD":"95.438","REF_FRAME":"TEME","CENTER_NAME":"EARTH","SEMIMAJOR_AXIS":"6917.883","SITE":"AFETR","FILE":"3886349","PERIAPSIS":"538.696","EPHEMERIS_TYPE":"0","COUNTRY_CODE":"US"},{"DECAY_DATE":null,"EPOCH":"2023-04-12T07:53:29.864832","REV_AT_EPOCH":"6054","MEAN_MOTION_DDOT":"0.0000000000000","ECCENTRICITY":"0.00013110","TLE_LINE1":"1 52003U 22025AZ  23102.32881788  .00000321  00000-0  38269-4 0  9992","LAUNCH_DATE":"2022-03-09","ARG_OF_PERICENTER":"90.0127","TIME_SYSTEM":"UTC","MEAN_MOTION_DOT":"0.00000321","APOAPSIS":"540.655","INCLINATION":"53.2169","MEAN_ANOMALY":"270.1015","TLE_LINE2":"2 52003  53.2169 108.2408 0001311  90.0127 270.1015 15.08839081 60540","BSTAR":"0.00003826900000","OBJECT_TYPE":"PAYLOAD","MEAN_ELEMENT_THEORY":"SGP4","ELEMENT_SET_NO":"999","SITE":"AFETR","SEMIMAJOR_AXIS":"6917.883","CENTER_NAME":"EARTH","PERIOD":"95.438","REF_FRAME":"TEME","RA_OF_ASC_NODE":"108.2408","GP_ID":"229983394","COUNTRY_CODE":"US","EPHEMERIS_TYPE":"0","FILE":"3886349","PERIAPSIS":"538.841","MEAN_MOTION":"15.08839081","RCS_SIZE":"LARGE","CLASSIFICATION_TYPE":"U","OBJECT_ID":"2022-025AZ","OBJECT_NAME":"STARLINK-3654","NORAD_CAT_ID":"52003"},{"EPOCH":"2023-04-12T07:21:26.347680","REV_AT_EPOCH":"6181","DECAY_DATE":null,"ECCENTRICITY":"0.00012710","MEAN_MOTION_DDOT":"0.0000000000000","LAUNCH_DATE":"2022-03-19","ARG_OF_PERICENTER":"100.3971","TLE_LINE1":"1 52088U 22029A   23102.30655495  .00019905  00000-0  12608-2 0  9996","MEAN_MOTION_DOT":"0.00019905","APOAPSIS":"540.232","TIME_SYSTEM":"UTC","INCLINATION":"53.2177","MEAN_ANOMALY":"259.7164","TLE_LINE2":"2 52088  53.2177  68.0746 0001271 100.3971 259.7164 15.08968375 61815","BSTAR":"0.00126080000000","ELEMENT_SET_NO":"999","OBJECT_TYPE":"PAYLOAD","MEAN_ELEMENT_THEORY":"SGP4","CENTER_NAME":"EARTH","PERIOD":"95.429","RA_OF_ASC_NODE":"68.0746","REF_FRAME":"TEME","SITE":"AFETR","SEMIMAJOR_AXIS":"6917.488","GP_ID":"229981902","EPHEMERIS_TYPE":"0","COUNTRY_CODE":"US","FILE":"3886349","PERIAPSIS":"538.474","MEAN_MOTION":"15.08968375","CLASSIFICATION_TYPE":"U","RCS_SIZE":"LARGE","OBJECT_NAME":"STARLINK-3537","OBJECT_ID":"2022-029A","NORAD_CAT_ID":"52088"},{"FILE":"3886349","PERIAPSIS":"538.638","COUNTRY_CODE":"US","EPHEMERIS_TYPE":"0","GP_ID":"229982152","SEMIMAJOR_AXIS":"6917.877","SITE":"AFETR","REF_FRAME":"TEME","PERIOD":"95.437","RA_OF_ASC_NODE":"177.6308","CENTER_NAME":"EARTH","NORAD_CAT_ID":"52089","OBJECT_ID":"2022-029B","OBJECT_NAME":"STARLINK-3722","CLASSIFICATION_TYPE":"U","RCS_SIZE":"LARGE","MEAN_MOTION":"15.08840950","TIME_SYSTEM":"UTC","MEAN_MOTION_DOT":"-0.00000868","APOAPSIS":"540.847","TLE_LINE1":"1 52089U 22029B   23102.46590006 -.00000868  00000-0 -36439-4 0  9990","ARG_OF_PERICENTER":"80.4651","LAUNCH_DATE":"2022-03-19","MEAN_MOTION_DDOT":"0.0000000000000","ECCENTRICITY":"0.00015960","DECAY_DATE":null,"REV_AT_EPOCH":"6029","EPOCH":"2023-04-12T11:10:53.765184","MEAN_ELEMENT_THEORY":"SGP4","OBJECT_TYPE":"PAYLOAD","ELEMENT_SET_NO":"999","BSTAR":"-0.00003643900000","TLE_LINE2":"2 52089  53.2187 177.6308 0001596  80.4651 279.6521 15.08840950 60298","MEAN_ANOMALY":"279.6521","INCLINATION":"53.2187"},{"TIME_SYSTEM":"UTC","MEAN_MOTION_DOT":"0.00000540","APOAPSIS":"540.724","TLE_LINE1":"1 52090U 22029C   23102.52109508  .00000540  00000-0  52043-4 0  9996","LAUNCH_DATE":"2022-03-19","ARG_OF_PERICENTER":"77.6954","ECCENTRICITY":"0.00014270","MEAN_MOTION_DDOT":"0.0000000000000","DECAY_DATE":null,"EPOCH":"2023-04-12T12:30:22.614912","REV_AT_EPOCH":"6030","OBJECT_TYPE":"PAYLOAD","MEAN_ELEMENT_THEORY":"SGP4","ELEMENT_SET_NO":"999","TLE_LINE2":"2 52090  53.2173 177.3823 0001427  77.6954 282.4198 15.08842715 60306","BSTAR":"0.00005204300000","MEAN_ANOMALY":"282.4198","INCLINATION":"53.2173","PERIAPSIS":"538.750","FILE":"3886349","COUNTRY_CODE":"US","EPHEMERIS_TYPE":"0","GP_ID":"229983400","SITE":"AFETR","SEMIMAJOR_AXIS":"6917.872","CENTER_NAME":"EARTH","RA_OF_ASC_NODE":"177.3823","PERIOD":"95.437","REF_FRAME":"TEME","NORAD_CAT_ID":"52090","OBJECT_ID":"2022-029C","OBJECT_NAME":"STARLINK-3712","CLASSIFICATION_TYPE":"U","RCS_SIZE":"LARGE","MEAN_MOTION":"15.08842715"},{"GP_ID":"229983638","CENTER_NAME":"EARTH","RA_OF_ASC_NODE":"177.6457","PERIOD":"95.439","REF_FRAME":"TEME","SITE":"AFETR","SEMIMAJOR_AXIS":"6917.961","PERIAPSIS":"538.606","FILE":"3886349","EPHEMERIS_TYPE":"0","COUNTRY_CODE":"US","RCS_SIZE":"LARGE","CLASSIFICATION_TYPE":"U","MEAN_MOTION":"15.08813632","NORAD_CAT_ID":"52091","OBJECT_NAME":"STARLINK-3713","OBJECT_ID":"2022-029D","ECCENTRICITY":"0.00017630","MEAN_MOTION_DDOT":"0.0000000000000","EPOCH":"2023-04-12T11:05:36.578688","REV_AT_EPOCH":"6029","DECAY_DATE":null,"APOAPSIS":"541.046","MEAN_MOTION_DOT":"0.00003236","TIME_SYSTEM":"UTC","LAUNCH_DATE":"2022-03-19","ARG_OF_PERICENTER":"80.5438","TLE_LINE1":"1 52091U 22029D   23102.46222892  .00003236  00000-0  22146-3 0  9997","MEAN_ANOMALY":"279.5754","INCLINATION":"53.2173","ELEMENT_SET_NO":"999","OBJECT_TYPE":"PAYLOAD","MEAN_ELEMENT_THEORY":"SGP4","TLE_LINE2":"2 52091  53.2173 177.6457 0001763  80.5438 279.5754 15.08813632 60295","BSTAR":"0.00022146000000"},{"BSTAR":"-0.00011265000000","TLE_LINE2":"2 52092  53.2158 177.6629 0001544  98.7816 261.3351 15.08838023 60291","ELEMENT_SET_NO":"999","MEAN_ELEMENT_THEORY":"SGP4","OBJECT_TYPE":"PAYLOAD","INCLINATION":"53.2158","MEAN_ANOMALY":"261.3351","ARG_OF_PERICENTER":"98.7816","LAUNCH_DATE":"2022-03-19","TLE_LINE1":"1 52092U 22029E   23102.45853381 -.00002080  00000-0 -11265-3 0  9998","MEAN_MOTION_DOT":"-0.00002080","APOAPSIS":"540.820","TIME_SYSTEM":"UTC","REV_AT_EPOCH":"6029","EPOCH":"2023-04-12T11:00:17.321184","DECAY_DATE":null,"MEAN_MOTION_DDOT":"0.0000000000000","ECCENTRICITY":"0.00015440","OBJECT_NAME":"STARLINK-3716","OBJECT_ID":"2022-029E","NORAD_CAT_ID":"52092","MEAN_MOTION":"15.08838023","RCS_SIZE":"LARGE","CLASSIFICATION_TYPE":"U","EPHEMERIS_TYPE":"0","COUNTRY_CODE":"US","PERIAPSIS":"538.683","FILE":"3886349","PERIOD":"95.438","RA_OF_ASC_NODE":"177.6629","REF_FRAME":"TEME","CENTER_NAME":"EARTH","SEMIMAJOR_AXIS":"6917.886","SITE":"AFETR","GP_ID":"229982403"},{"MEAN_MOTION_DDOT":"0.0000000000000","ECCENTRICITY":"0.00011950","DECAY_DATE":null,"EPOCH":"2023-04-12T12:19:47.086752","REV_AT_EPOCH":"6030","TIME_SYSTEM":"UTC","MEAN_MOTION_DOT":"-0.00000762","APOAPSIS":"540.584","TLE_LINE1":"1 52093U 22029F   23102.51373943 -.00000762  00000-0 -29821-4 0  9990","LAUNCH_DATE":"2022-03-19","ARG_OF_PERICENTER":"97.1947","MEAN_ANOMALY":"262.9181","INCLINATION":"53.2167","OBJECT_TYPE":"PAYLOAD","MEAN_ELEMENT_THEORY":"SGP4","ELEMENT_SET_NO":"999","TLE_LINE2":"2 52093  53.2167 177.4146 0001195  97.1947 262.9181 15.08836253 60307","BSTAR":"-0.00002982100000","GP_ID":"229982653","SITE":"AFETR","SEMIMAJOR_AXIS":"6917.892","CENTER_NAME":"EARTH","RA_OF_ASC_NODE":"177.4146","PERIOD":"95.438","REF_FRAME":"TEME","PERIAPSIS":"538.930","FILE":"3886349","COUNTRY_CODE":"US","EPHEMERIS_TYPE":"0","RCS_SIZE":"LARGE","CLASSIFICATION_TYPE":"U","MEAN_MOTION":"15.08836253","NORAD_CAT_ID":"52093","OBJECT_ID":"2022-029F","OBJECT_NAME":"STARLINK-3673"}];
